[{"OBJECT_NAME":"STARLINK-6274","OBJECT_ID":"2023-078K","EPOCH":"2026-03-09T22:06:02.226240","MEAN_MOTION":14.98332298,"ECCENTRICITY":0.00025794,"INCLINATION":70.0011,"RA_OF_ASC_NODE":324.0592,"ARG_OF_PERICENTER":244.8303,"MEAN_ANOMALY":115.2588,"EPHEMERIS_TYPE":0,"CLASSIFICATION_TYPE":"U","NORAD_CAT_ID":56776,"ELEMENT_SET_NO":999,"REV_AT_EPOCH":15320,"BSTAR":-6.8274288e-5,"MEAN_MOTION_DOT":-9.07e-6,"MEAN_MOTION_DDOT":0},{"OBJECT_NAME":"SKYKRAFT-4E","OBJECT_ID":"2025-154L","EPOCH":"2026-03-09T17:52:42.156768","MEAN_MOTION":14.96573469,"ECCENTRICITY":0.00042366,"INCLINATION":97.6795,"RA_OF_ASC_NODE":135.3397,"ARG_OF_PERICENTER":218.3459,"MEAN_ANOMALY":141.7462,"EPHEMERIS_TYPE":0,"CLASSIFICATION_TYPE":"U","NORAD_CAT_ID":65227,"ELEMENT_SET_NO":999,"REV_AT_EPOCH":3245,"BSTAR":0.00070463663,"MEAN_MOTION_DOT":7.969e-5,"MEAN_MOTION_DDOT":0}]
